[
    {
        "Altitude(m)": 612513.9315894676,
        "Argument of Periapsis(deg)": 0.0,
        "Eccentricity": 0.0,
        "Inclination(deg)": 60.0,
        "Latitude(deg)": -28.135963193670626,
        "Longitude(deg)": -167.08693862832,
        "Mean Anomaly(deg)": 212.7273,
        "RAAN(deg)": 95.0,
        "Satellite Name": "Test1 431",
        "Satellite Number": 431,
        "Semi-Major Axis(m)": 6980739.136638005,
        "Time(s)": 0
    },
    {
        "Altitude(m)": 612708.2997606904,
        "Argument of Periapsis(deg)": 0.00010418945913296404,
        "Eccentricity": 0.0,
        "Inclination(deg)": 60.0,
        "Latitude(deg)": -28.647702982600542,
        "Longitude(deg)": -166.72970940593683,
        "Mean Anomaly(deg)": 213.34740614546183,
        "RAAN(deg)": 94.99957995086027,
        "Satellite Name": "Test1 431",
        "Satellite Number": 431,
        "Semi-Major Axis(m)": 6980739.136638005,
        "Time(s)": 10
    }
]